NORAD_CAT_ID,OBJECT_NAME,OBJECT_TYPE,EPOCH,MEAN_MOTION,ECCENTRICITY,INCLINATION,RA_OF_ASC_NODE,ARG_OF_PERICENTER,MEAN_ANOMALY,BSTAR,MEAN_MOTION_DOT,MEAN_MOTION_DDOT,TLE_LINE0,TLE_LINE1,TLE_LINE2,SEMIMAJOR_AXIS,PERIOD,APOGEE,PERIGEE,DECAYED
52866.0,STARLINK-4272,PAYLOAD,2024-08-14 06:46:28,15.08809498,0.0002131,53.2179,73.758,85.9048,274.2188,0.0018754,0.0002966,0.0,0 STARLINK-4272,1 52866U 22062AN  24227.28227029  .00029660  00000-0  18754-2 0  9998,2 52866  53.2179  73.7580 0002131  85.9048 274.2188 15.08809498120004,6917.974,95.439,541.313,538.364,0.0
52866.0,STARLINK-4272,PAYLOAD,2024-08-14 19:29:33,15.08854586,0.0001502,53.2171,71.3809,89.1045,271.0119,0.0020817,0.00033011,0.0,0 STARLINK-4272,1 52866U 22062AN  24227.81218852  .00033011  00000-0  20817-2 0  9999,2 52866  53.2171  71.3809 0001502  89.1045 271.0119 15.08854586120083,6917.836,95.437,540.74,538.662,0.0
52866.0,STARLINK-4272,PAYLOAD,2024-08-14 21:04:56,15.08856994,0.0001527,53.2164,71.0846,97.381,262.7356,0.0019208,0.00030428,0.0,0 STARLINK-4272,1 52866U 22062AN  24227.87842769  .00030428  00000-0  19208-2 0  9996,2 52866  53.2164  71.0846 0001527  97.3810 262.7356 15.08856994119602,6917.828,95.436,540.75,538.637,0.0
52866.0,STARLINK-4272,PAYLOAD,2024-08-15 06:37:14,15.08864898,0.0001601,53.2175,69.2963,85.4986,274.6189,0.0014411,0.00022737,0.0,0 STARLINK-4272,1 52866U 22062AN  24228.27586437  .00022737  00000-0  14411-2 0  9993,2 52866  53.2175  69.2963 0001601  85.4986 274.6189 15.08864898119662,6917.804,95.436,540.777,538.562,0.0
52866.0,STARLINK-4272,PAYLOAD,2024-08-16 20:46:29,15.08885038,0.0001227,53.2153,62.1597,91.1991,268.9142,0.0017098,0.00027062,0.0,0 STARLINK-4272,1 52866U 22062AN  24229.86561569  .00027062  00000-0  17098-2 0  9998,2 52866  53.2153  62.1597 0001227  91.1991 268.9142 15.08885038120393,6917.743,95.435,540.457,538.759,0.0
52866.0,STARLINK-4272,PAYLOAD,2024-08-18 02:58:48,15.08848791,0.0001108,53.216,56.5121,109.8563,250.2549,0.0017807,0.00028172,0.0,0 STARLINK-4272,1 52866U 22062AN  24231.12417192  .00028172  00000-0  17807-2 0  9993,2 52866  53.2160  56.5121 0001108 109.8563 250.2549 15.08848791120582,6917.854,95.437,540.485,538.952,0.0
52866.0,STARLINK-4272,PAYLOAD,2024-08-18 18:52:39,15.08852065,0.0001311,53.2165,53.5372,84.4295,275.6847,0.00056746,8.758e-05,0.0,0 STARLINK-4272,1 52866U 22062AN  24231.78657353  .00008758  00000-0  56746-3 0  9994,2 52866  53.2165  53.5372 0001311  84.4295 275.6847 15.08852065120680,6917.844,95.437,540.615,538.802,0.0
52866.0,STARLINK-4272,PAYLOAD,2024-08-19 12:21:54,15.08842058,0.0001556,53.218,50.2679,86.4233,273.6937,0.00052115,8.016e-05,0.0,0 STARLINK-4272,1 52866U 22062AN  24232.51521574  .00008016  00000-0  52115-3 0  9994,2 52866  53.2180  50.2679 0001556  86.4233 273.6937 15.08842058120797,6917.874,95.437,540.816,538.663,0.0
52866.0,STARLINK-4272,PAYLOAD,2024-08-20 04:15:46,15.08842074,0.0001443,53.2171,47.2915,77.4857,282.6296,0.00025853,3.829e-05,0.0,0 STARLINK-4272,1 52866U 22062AN  24233.17761620  .00003829  00000-0  25853-3 0  9991,2 52866  53.2171  47.2915 0001443  77.4857 282.6296 15.08842074120890,6917.874,95.437,540.737,538.741,0.0
52866.0,STARLINK-4272,PAYLOAD,2024-08-20 12:12:41,15.08844092,0.0001441,53.2171,45.8048,78.0436,282.0717,0.00018856,2.715e-05,0.0,0 STARLINK-4272,1 52866U 22062AN  24233.50881521  .00002715  00000-0  18856-3 0  9999,2 52866  53.2171  45.8048 0001441  78.0436 282.0717 15.08844092120455,6917.868,95.437,540.73,538.736,0.0
52866.0,STARLINK-4272,PAYLOAD,2024-08-21 12:03:28,15.08836279,0.0001418,53.218,41.3467,92.7726,267.3428,4.1754e-05,3.77e-06,0.0,0 STARLINK-4272,1 52866U 22062AN  24234.50241861  .00000377  00000-0  41754-4 0  9993,2 52866  53.2180  41.3467 0001418  92.7726 267.3428 15.08836279121094,6917.892,95.438,540.738,538.776,0.0
52866.0,STARLINK-4272,PAYLOAD,2024-08-21 15:14:15,15.08834478,0.0001268,53.2176,40.752,81.4887,278.6249,1.7608e-05,-8e-08,0.0,0 STARLINK-4272,1 52866U 22062AN  24234.63490020 -.00000008  00000-0  17608-4 0  9993,2 52866  53.2176  40.7520 0001268  81.4887 278.6249 15.08834478120621,6917.897,95.438,540.639,538.885,0.0
52866.0,STARLINK-4272,PAYLOAD,2024-08-21 16:49:38,15.0883188,0.0001397,53.2183,40.455,90.5863,269.5289,-4.546e-05,-1.011e-05,0.0,0 STARLINK-4272,1 52866U 22062AN  24234.70114129 -.00001011  00000-0 -45460-4 0  9997,2 52866  53.2183  40.4550 0001397  90.5863 269.5289 15.08831880120635,6917.905,95.438,540.737,538.804,0.0
